{
    "links": {
        "self": "http://www.neowsapp.com/rest/v1/neo/3587875?api_key=iIulBulltgU6a56xZRHN4H3l9WmuAYTsLGpBGhQ2"
    },
    "id": "3587875",
    "neo_reference_id": "3587875",
    "name": "(2011 WD)",
    "designation": "2011 WD",
    "nasa_jpl_url": "http://ssd.jpl.nasa.gov/sbdb.cgi?sstr=3587875",
    "absolute_magnitude_h": 26.1,
    "estimated_diameter": {
        "kilometers": {
            "estimated_diameter_min": 0.0160160338,
            "estimated_diameter_max": 0.0358129403
        },
        "meters": {
            "estimated_diameter_min": 16.0160337979,
            "estimated_diameter_max": 35.8129403019
        },
        "miles": {
            "estimated_diameter_min": 0.0099518989,
            "estimated_diameter_max": 0.0222531225
        },
        "feet": {
            "estimated_diameter_min": 52.5460443254,
            "estimated_diameter_max": 117.4965270602
        }
    },
    "is_potentially_hazardous_asteroid": false,
    "close_approach_data": [
        {
            "close_approach_date": "2011-12-01",
            "close_approach_date_full": "2011-Dec-01 14:43",
            "epoch_date_close_approach": 1322750580000,
            "relative_velocity": {
                "kilometers_per_second": "3.6266707744",
                "kilometers_per_hour": "13056.0147877977",
                "miles_per_hour": "8112.4998552291"
            },
            "miss_distance": {
                "astronomical": "0.0734702249",
                "lunar": "28.5799174861",
                "kilometers": "10990989.153460963",
                "miles": "6829483.9725807694"
            },
            "orbiting_body": "Earth"
        },
        {
            "close_approach_date": "2084-12-01",
            "close_approach_date_full": "2084-Dec-01 06:09",
            "epoch_date_close_approach": 3626489340000,
            "relative_velocity": {
                "kilometers_per_second": "3.675838167",
                "kilometers_per_hour": "13233.0174011546",
                "miles_per_hour": "8222.4823957341"
            },
            "miss_distance": {
                "astronomical": "0.0734377714",
                "lunar": "28.5672930746",
                "kilometers": "10986134.178986918",
                "miles": "6826467.2313307484"
            },
            "orbiting_body": "Earth"
        }
    ],
    "orbital_data": {
        "orbit_id": "8",
        "orbit_determination_date": "2017-04-06 08:52:01",
        "first_observation_date": "2011-11-16",
        "last_observation_date": "2011-12-01",
        "data_arc_in_days": 15,
        "observations_used": 32,
        "orbit_uncertainty": "8",
        "minimum_orbit_intersection": ".0730667",
        "jupiter_tisserand_invariant": "4.815",
        "epoch_osculation": "2455891.5",
        "eccentricity": ".2287468635826927",
        "semi_major_axis": "1.360569942694465",
        "inclination": "5.682034283742514",
        "ascending_node_longitude": "234.145151203666",
        "orbital_period": "579.6685462741964",
        "perihelion_distance": "1.049343835618222",
        "perihelion_argument": "207.9521632309165",
        "aphelion_distance": "1.671796049770707",
        "perihelion_time": "2455910.471284553658",
        "mean_anomaly": "348.2179868422837",
        "mean_motion": ".6210445647152845",
        "equinox": "J2000",
        "orbit_class": {
            "orbit_class_type": "AMO",
            "orbit_class_description": "Near-Earth asteroid orbits similar to that of 1221 Amor",
            "orbit_class_range": "1.017 AU < q (perihelion) < 1.3 AU"
        }
    },
    "is_sentry_object": false
}